satname,norad_id,inclination_deg,eccentricity,mean_motion_rev_per_day,perigee_km,apogee_km,l1,l2
STARLINK-1008,44714,53.0535,0.000153,15.06380009,546.2132404479216,548.332415855336,1 44714U 19074B   25268.10307219 -.00004480  00000+0 -28221-3 0  9992,2 44714  53.0535 209.9652 0001530  87.1947 272.9217 15.06380009323797
STARLINK-1010,44716,53.0487,0.0008287,15.79690489,325.7567628299694,336.8770117027252,1 44716U 19074D   25268.33339120  .00193122  00000+0  10116-2 0  9998,2 44716  53.0487 155.6475 0008287  72.8512  45.9094 15.79690489  5963
STARLINK-1011,44717,53.0499,0.0007245,15.69941827,354.1823302075454,363.94453363339835,1 44717U 19074E   25268.33339120  .00194210  00000+0  15538-2 0  9991,2 44717  53.0499 209.8002 0007245  74.4203  41.4378 15.69941827  5930
STARLINK-1012,44718,53.0537,0.0001296,15.06389191,546.3471566980588,548.1422156311128,1 44718U 19074F   25268.21365335  .00000555  00000+0  56129-4 0  9997,2 44718  53.0537 209.4712 0001296  90.7069 269.4069 15.06389191323808
STARLINK-1015,44721,53.0376,0.0002875,16.05205814,258.11925455796336,261.93619927594045,1 44721U 19074J   25268.67746830  .00388488  80552-4  54726-3 0  9993,2 44721  53.0376 140.6203 0002875 252.9762 145.0281 16.05205814324940
STARLINK-1017,44723,53.0529,0.0003893,15.11550086,528.7822084742038,534.1620301344947,1 44723U 19074L   25268.21864764  .00061990  00000+0  35997-2 0  9991,2 44723  53.0529 207.7621 0003893  48.9661 311.1666 15.11550086323833
STARLINK-1019,44724,53.0539,0.0001241,15.06403022,546.3428613523811,548.0617305656388,1 44724U 19074M   25268.07726726  .00003271  00000+0  23837-3 0  9990,2 44724  53.0539 210.0835 0001241  96.9532 263.1599 15.06403022323780
STARLINK-1020,44725,53.0539,0.0001411,15.0638632,546.2763128877896,548.2306580827944,1 44725U 19074N   25268.28183419 -.00002218  00000+0 -13011-3 0  9995,2 44725  53.0539 229.1638 0001411  92.3642 267.7509 15.06386320323539
STARLINK-1021,44726,53.0404,0.000128,15.97251597,281.1954129700407,282.9004203086997,1 44726U 19074P   25268.33339120  .00386114  72118-4  86492-3 0  9999,2 44726  53.0404 148.5985 0001280 311.0730 175.3447 15.97251597  5992
STARLINK-1029,44734,53.049,0.0001445,15.90783933,299.12295028205244,301.05295729369664,1 44734U 19074X   25268.33339120  .00422347  78490-4  13340-2 0  9997,2 44734  53.0490  72.6800 0001445 132.0266 115.9912 15.90783933  5902
STARLINK-1031,44736,53.0521,0.0008274,15.39010377,443.38564606968157,454.6832493813781,1 44736U 19074Z   25268.13690988  .00135420  00000+0  33997-2 0  9999,2 44736  53.0521 208.5642 0008274  53.4367 306.7397 15.39010377323827
STARLINK-1036,44741,53.0528,0.0001364,15.06394297,546.2844169396094,548.1736567944663,1 44741U 19074AE  25268.31132258 -.00000688  00000+0 -27285-4 0  9990,2 44741  53.0528 229.0335 0001364  96.7946 263.3198 15.06394297323549
STARLINK-1039,44744,53.052,0.0005996,15.09737135,532.8562464924289,541.1488818577873,1 44744U 19074AH  25268.23214110  .00051404  00000+0  31450-2 0  9999,2 44744  53.0520 248.6121 0005996  12.4741 347.6396 15.09737135323267
STARLINK-1042,44747,53.0478,0.0003478,15.41110263,440.4589942510993,445.2036598193845,1 44747U 19074AL  25267.97434766  .00027161  00000+0  65363-3 0  9997,2 44747  53.0478 164.6622 0003478  48.5775 311.5527 15.41110263324445
STARLINK-1043,44748,53.0525,0.0001568,15.0640334,546.115428289454,548.2872143870263,1 44748U 19074AM  25268.21732931 -.00000139  00000+0  95602-5 0  9999,2 44748  53.0525 249.4523 0001568  96.3262 263.7905 15.06403340323259
STARLINK-1046,44751,53.0524,0.000139,15.06395777,546.2618756066713,548.1871261039078,1 44751U 19074AQ  25268.23208027  .00001474  00000+0  11787-3 0  9991,2 44751  53.0524 249.3872 0001390  91.0110 269.1039 15.06395777323257
STARLINK-1047,44752,53.0717,0.0005243,15.28150738,477.7442089449405,484.9370571909749,1 44752U 19074AR  25268.21333393  .00018496  00000+0  67589-3 0  9998,2 44752  53.0717 196.5212 0005243  69.8666 290.2896 15.28150738324003
STARLINK-1048,44753,53.0536,0.0001494,15.06390987,546.2045304213643,548.2738328244322,1 44753U 19074AS  25268.25787181 -.00001421  00000+0 -76538-4 0  9998,2 44753  53.0536 209.2723 0001494 126.7510 233.3616 15.06390987323811
STARLINK-1053,44758,53.0418,0.0003064,15.55718717,397.9873712653016,402.141052968087,1 44758U 19074AX  25268.17092244  .00065942  00000+0  93990-3 0  9999,2 44758  53.0418 181.3623 0003064  93.2003 266.9358 15.55718717324213
STARLINK-1054,44759,53.044,0.0009884,15.68068718,357.7632166356698,371.09191827261293,1 44759U 19074AY  25268.33339120  .00327872  00000+0  27819-2 0  9994,2 44759  53.0440 209.9125 0009884  47.7645  15.2834 15.68068718  5904
STARLINK-1056,44761,53.0424,0.0010181,15.79801404,324.17226923219823,337.83341978358476,1 44761U 19074BA  25268.33339120  .00294639  00000+0  15143-2 0  9998,2 44761  53.0424 198.9731 0010181  63.1622  58.8092 15.79801404  5883
STARLINK-1057,44762,53.0414,0.0002133,16.06103183,256.13950056148406,258.9702867233109,1 44762U 19074BB  25268.72129206  .01536196  15311-2  20830-2 0  9995,2 44762  53.0414 167.1068 0002133 126.6074 233.5155 16.06103183324446
STARLINK-1060,44765,53.0546,0.0001596,15.41430584,440.7978525132021,442.9748039595752,1 44765U 19074BE  25268.33339120  .00973832  00000+0  21202-1 0  9993,2 44765  53.0546 226.0460 0001596  68.2511 294.2796 15.41430584  5655
STARLINK-1063,44768,53.0533,0.0001239,15.06387634,546.3914028243444,548.1075135886867,1 44768U 19074BH  25268.22102514  .00002949  00000+0  21688-3 0  9991,2 44768  53.0533 249.4363 0001239  88.7375 271.3756 15.06387634323264
STARLINK-1067,44771,53.0532,0.0001421,15.06390511,546.2565443465573,548.2247366719903,1 44771U 19074BL  25268.27631214 -.00000667  00000+0 -25913-4 0  9997,2 44771  53.0532 249.1898 0001421  90.8986 269.2166 15.06390511323261
STARLINK-1068,44772,53.0531,0.0001327,15.06394954,546.3080274388067,548.146019050575,1 44772U 19074BM  25268.13439316 -.00003934  00000+0 -24538-3 0  9993,2 44772  53.0531 229.8263 0001327 103.9361 256.1776 15.06394954323515
STARLINK-1112,44925,53.053,0.0002375,15.46327677,425.86341358847767,429.0960815435701,1 44925U 20001M   25268.00002315  .00099344  00000+0  19647-2 0  9998,2 44925  53.0530 339.6662 0002375 165.6513 294.0204 15.46327677  5869
STARLINK-1114,44927,53.0569,0.000118,15.06381697,546.45045681591,548.0848523143877,1 44927U 20001P   25267.57597625 -.00004234  00000+0 -26568-3 0  9991,2 44927  53.0569  12.3351 0001180  90.8987 269.2137 15.06381697314815
STARLINK-1123,44930,53.0565,0.000145,15.06447839,546.0607878918199,548.0690964550504,1 44930U 20001S   25267.59070742  .00013003  00000+0  88905-3 0  9998,2 44930  53.0565  12.2668 0001450  87.7456 272.3699 15.06447839314810
STARLINK-1144,44933,53.0471,0.0012497,15.51162438,404.8436431471282,421.81823811794584,1 44933U 20001V   25268.16337973  .00118312  00000+0  19641-2 0  9996,2 44933  53.0471 317.2455 0012497 316.3306  43.6712 15.51162438316938
STARLINK-1091,44940,53.0409,0.0005472,15.7717585,334.7713522374961,342.12198140246437,1 44940U 20001AC  25268.33339120  .00212034  00000+0  12417-2 0  9999,2 44940  53.0409 301.2536 0005472 332.1015 139.8148 15.77175850  5989
STARLINK-1094,44941,53.0558,0.0001453,15.06406321,546.1859347208219,548.198435381998,1 44941U 20001AD  25267.53727739  .00018907  00000+0  12846-2 0  9997,2 44941  53.0558 352.5071 0001453  87.3108 272.8048 15.06406321315089
STARLINK-1096,44942,52.9916,0.0002046,15.76711282,338.3914516773193,341.1404175581656,1 44942U 20001AE  25268.01666613  .00134559  00000+0  81363-3 0  9998,2 44942  52.9916 129.4674 0002046 174.6252 185.4789 15.76711282318238
STARLINK-1122,44949,53.0573,0.0001447,15.0638548,546.2539556286902,548.258164380256,1 44949U 20001AM  25268.22286775  .00000888  00000+0  78526-4 0  9990,2 44949  53.0573 349.4278 0001447  90.7012 269.4143 15.06385480315184
STARLINK-1080,44961,53.0549,0.0001213,15.06414291,546.3277189606279,548.0077978950221,1 44961U 20001AZ  25267.49119050  .00013171  00000+0  90113-3 0  9997,2 44961  53.0549 332.7157 0001213  90.4034 269.7094 15.06414291315365
STARLINK-1090,44968,53.0538,0.0001553,15.0639914,546.1386866752846,548.2897007560532,1 44968U 20001BG  25268.15834232  .00000448  00000+0  48998-4 0  9992,2 44968  53.0538 329.7226 0001553  88.9417 271.1750 15.06399140315469
STARLINK-1107,44972,53.0123,0.0008235,15.56199928,393.0861302555113,404.2475261605705,1 44972U 20001BL  25268.14750507  .00133675  00000+0  18469-2 0  9995,2 44972  53.0123 258.8512 0008235  65.0019 295.1846 15.56199928316451
STARLINK-1132,45044,53.0543,0.0001369,15.06386991,546.303343260649,548.1995146124909,1 45044U 20006A   25268.25050736 -.00000265  00000+0  11338-5 0  9990,2 45044  53.0543 289.3042 0001369  93.9224 266.1922 15.06386991311804
STARLINK-1131,45047,53.0546,0.0001297,15.06387359,546.3520783206213,548.1485237865154,1 45047U 20006D   25268.16025655  .00000745  00000+0  68930-4 0  9996,2 45047  53.0546 310.2482 0001297  87.7261 272.3877 15.06387359311508
STARLINK-1134,45048,53.045,0.0009138,15.23776502,488.18164013718433,500.74200174233283,1 45048U 20006E   25268.06112305  .00054338  00000+0  22244-2 0  9998,2 45048  53.0450 293.4770 0009138  17.9243 342.2075 15.23776502311735
STARLINK-1156,45054,53.0535,0.000148,15.06387528,546.2248258418167,548.2747403296107,1 45054U 20006L   25268.26340589 -.00000034  00000+0  16620-4 0  9992,2 45054  53.0535 309.2494 0001480  91.0968 269.0191 15.06387528311523
STARLINK-1159,45057,53.0553,0.0001651,15.06397782,546.0749796279251,548.3617319664099,1 45057U 20006P   25268.07910088  .00000200  00000+0  32353-4 0  9996,2 45057  53.0553 310.0759 0001651  85.6573 274.4605 15.06397782311502
STARLINK-1166,45060,53.0537,0.0001862,15.0637188,546.0082270797875,548.5872589780911,1 45060U 20006S   25268.28922766  .00007362  00000+0  51298-3 0  9993,2 45060  53.0537 309.1327 0001862  26.8579 333.2506 15.06371880311533
